ONEWEB-0597             
1 54663U 22166X   24366.91367588  .00000096  00000+0  20207-3 0  9997
2 54663  87.9303 350.0304 0001904  78.5409 281.5939 13.21824914101226
ONEWEB-0600             
1 54664U 22166Y   24366.66923526  .00000134  00000+0  29283-3 0  9996
2 54664  87.9297 350.1080 0001782  80.7653 279.3683 13.21826311101168
ONEWEB-0601             
1 54665U 22166Z   24366.66135545  .00000060  00000+0  11312-3 0  9995
2 54665  87.9303 350.0884 0002127  77.2879 282.8493 13.21825666101354
ONEWEB-0602             
1 54666U 22166AA  24366.92944751  .00000006  00000+0 -17333-4 0  9993
2 54666  87.9302 350.0372 0001793  76.2841 283.8492 13.21826900101231
ONEWEB-0603             
1 54667U 22166AB  25001.38836206  .00006168  00000+0  14899-1 0  9991
2 54667  87.9278 349.9321 0002342  81.3502 278.7897 13.21795637101680
ONEWEB-0604             
1 54668U 22166AC  24366.92155963  .00000065  00000+0  12543-3 0  9995
2 54668  87.9298 350.0093 0001732  76.0848 284.0479 13.21826083101594
ONEWEB-0605             
1 54669U 22166AD  24366.91525876  .00000122  00000+0  26377-3 0  9993
2 54669  87.9297 350.0421 0002471  81.4860 278.6554 13.21826969101668
ONEWEB-0606             
1 54670U 22166AE  25001.39150820  .00000135  00000+0  29518-3 0  9991
2 54670  87.9305 349.9486 0001726  91.2794 268.8538 13.21828036101777
